OBJECT_NAME,OBJECT_ID,EPOCH,MEAN_MOTION,ECCENTRICITY,INCLINATION,RA_OF_ASC_NODE,ARG_OF_PERICENTER,MEAN_ANOMALY,EPHEMERIS_TYPE,CLASSIFICATION_TYPE,NORAD_CAT_ID,ELEMENT_SET_NO,REV_AT_EPOCH,BSTAR,MEAN_MOTION_DOT,MEAN_MOTION_DDOT
UMBRA-10,2024-149CH,2026-07-17T12:16:07.818240,15.18890909,.00017975,97.6976,286.2847,161.4893,198.6406,0,U,60547,999,10533,.39740086E-3,.8222E-4,0
ICEYE-X33,2024-149CJ,2026-07-17T04:04:39.090432,15.00895206,.0001911,97.7369,277.1615,73.0376,287.1057,0,U,60548,999,10470,.20545936E-3,.2555E-4,0
ICEYE-X40,2024-149CK,2026-07-17T15:04:55.489728,14.98081367,.00045362,97.6800,274.6351,359.1312,0.9902,0,U,60549,999,10463,.13034172E-3,.1484E-4,0
SATELIOT_1,2024-149CL,2026-07-17T00:23:06.309600,14.98167193,.00054437,97.6734,273.4174,347.4490,12.6596,0,U,60550,999,10453,.10558041E-3,.1194E-4,0
BRO-14,2024-149CM,2026-07-16T16:30:52.192512,14.96238845,.00066062,97.6864,272.9353,13.7779,346.3621,0,U,60551,999,10440,.93958499E-4,.1003E-4,0
SATELIOT_3,2024-149CN,2026-07-17T12:37:50.442528,14.98165702,.00048229,97.6814,274.7403,354.9203,5.1970,0,U,60552,999,10462,.35451319E-4,.362E-5,0
BRO-15,2024-149CP,2026-07-17T11:21:35.038080,14.96223220,.00074999,97.6790,273.2799,357.1090,3.0087,0,U,60553,999,10453,.42432148E-4,.422E-5,0
UM5-RIBAT,2024-149CQ,2026-07-17T11:13:32.002464,15.01223599,.00004906,97.6602,275.8570,326.3360,33.7833,0,U,60554,999,10473,.89968202E-4,.1096E-4,0
UM5-EOSAT,2024-149CR,2026-07-16T18:11:28.974336,15.01734757,.00090711,97.6778,276.1635,31.4697,328.7068,0,U,60555,999,10465,.1436576E-3,.181E-4,0
LASARSAT,2024-247Q,2026-07-16T02:15:08.659008,15.48082110,.00074765,44.9739,99.5612,171.6523,188.4493,0,U,62391,999,8779,.39100475E-3,.20669E-3,0
CROCUBE,2024-247T,2026-07-17T02:02:17.543328,15.50291791,.0007819,44.9718,90.7884,184.7174,175.3645,0,U,62394,999,8798,.4382351E-3,.25129E-3,0
TEVEL2-4,2025-052D,2026-07-17T03:59:33.255168,15.35610547,.0003412,97.3861,94.6235,48.0092,312.1442,0,U,63213,999,7471,.29456246E-3,.10121E-3,0
TEVEL2-5,2025-052E,2026-07-16T16:03:21.768480,15.35411833,.00034631,97.3862,94.0641,50.3372,309.8177,0,U,63214,999,7463,.32362702E-3,.11058E-3,0
TEVEL2-6,2025-052F,2026-07-17T15:49:49.044288,15.35395037,.00033629,97.3864,95.0416,51.0715,309.0827,0,U,63215,999,7478,.2877607E-3,.9817E-4,0
TEVEL2-1,2025-052H,2026-07-17T12:05:46.516704,15.34820987,.0004106,97.3833,94.4731,55.4900,304.6730,0,U,63217,999,7474,.27299742E-3,.914E-4,0
TEVEL2-3,2025-052J,2026-07-17T04:06:58.184064,15.34878538,.00038276,97.3842,94.1664,58.5238,301.6379,0,U,63218,999,7469,.29333104E-3,.9845E-4,0
TEVEL2-2,2025-052K,2026-07-17T10:32:03.164064,15.34831434,.00041388,97.3834,94.4108,55.7304,304.4331,0,U,63219,999,7473,.28479072E-3,.9542E-4,0
TEVEL2-9,2025-052AD,2026-07-16T16:08:49.602048,15.32762164,.00075566,97.3899,92.9536,53.0535,307.1398,0,U,63237,999,7454,.32238013E-3,.10133E-3,0
TEVEL2-7,2025-052AE,2026-07-17T04:14:23.728992,15.32453102,.00076022,97.3898,93.3596,51.1945,308.9975,0,U,63238,999,7461,.28759837E-3,.8943E-4,0
TEVEL2-8,2025-052AF,2026-07-16T15:54:27.850176,15.32429153,.00077106,97.3904,92.8233,54.0583,306.1374,0,U,63239,999,7453,.30904259E-3,.9609E-4,0
FORESAIL-1 PRIME,2025-276DS,2026-07-17T04:05:35.310912,15.18947700,.00027374,97.4189,270.8955,40.2765,319.8672,0,U,66778,999,3495,.11111914E-3,.2254E-4,0
